NORAD_CAT_ID,OBJECT_NAME,OBJECT_TYPE,EPOCH,MEAN_MOTION,ECCENTRICITY,INCLINATION,RA_OF_ASC_NODE,ARG_OF_PERICENTER,MEAN_ANOMALY,BSTAR,MEAN_MOTION_DOT,MEAN_MOTION_DDOT,TLE_LINE0,TLE_LINE1,TLE_LINE2,SEMIMAJOR_AXIS,PERIOD,APOGEE,PERIGEE,DECAYED
51872.0,STARLINK-3554,PAYLOAD,2022-09-15 16:00:00,15.08823408,0.0001481,53.2172,314.9711,50.6037,272.4555,0.0021011,0.00033294,0.0,0 STARLINK-3554,1 51872U 22022W   22258.66667824  .00033294  00000-0  21011-2 0  9993,2 51872  53.2172 314.9711 0001481  50.6037 272.4555 15.08823408  1309,6917.931,95.439,540.821,538.7719999999998,0.0
51872.0,STARLINK-3554,PAYLOAD,2022-09-16 03:17:32,15.08838443,0.0001539,53.2181,312.8572,60.5804,299.5342,9.6167e-05,1.243e-05,0.0,0 STARLINK-3554,1 51872U 22022W   22259.13717908  .00001243  00000-0  96167-4 0  9990,2 51872  53.2181 312.8572 0001539  60.5804 299.5342 15.08838443 31309,6917.885,95.438,540.815,538.685,0.0
51872.0,STARLINK-3554,PAYLOAD,2022-09-16 11:14:27,15.08845678,0.0001592,53.2182,311.371,56.8583,303.2561,0.00026213,3.887e-05,0.0,0 STARLINK-3554,1 51872U 22022W   22259.46837677  .00003887  00000-0  26213-3 0  9992,2 51872  53.2182 311.3710 0001592  56.8583 303.2561 15.08845678 31358,6917.863,95.437,540.8290000000002,538.627,0.0
51872.0,STARLINK-3554,PAYLOAD,2022-09-17 12:40:39,15.08831861,0.0001523,53.2189,306.6132,60.4099,299.7045,-7.5227e-05,-1.485e-05,0.0,0 STARLINK-3554,1 51872U 22022W   22260.52823258 -.00001485  00000-0 -75227-4 0  9995,2 51872  53.2189 306.6132 0001523  60.4099 299.7045 15.08831861 31510,6917.905,95.438,540.8240000000002,538.717,0.0
51872.0,STARLINK-3554,PAYLOAD,2022-09-17 14:16:02,15.08832366,0.0001520999999999,53.2188,306.3159,59.81100000000001,300.3032,-7.598199999999999e-05,-1.497e-05,0.0,0 STARLINK-3554,1 51872U 22022W   22260.59447228 -.00001497  00000-0 -75982-4 0  9992,2 51872  53.2188 306.3159 0001521  59.8110 300.3032 15.08832366 31526,6917.904,95.438,540.821,538.717,0.0
51872.0,STARLINK-3554,PAYLOAD,2022-09-18 10:56:02,15.08838595,0.000154,53.2187,302.4503,57.5951,302.519,2.8078e-05,1.59e-06,0.0,0 STARLINK-3554,1 51872U 22022W   22261.45558884  .00000159  00000-0  28078-4 0  9995,2 51872  53.2187 302.4503 0001540  57.5951 302.5190 15.08838595 31657,6917.885,95.438,540.815,538.684,0.0
51872.0,STARLINK-3554,PAYLOAD,2022-09-18 12:31:25,15.08839015,0.0001541,53.2186,302.1529,57.7228,302.3914,2.9375e-05,1.8e-06,0.0,0 STARLINK-3554,1 51872U 22022W   22261.52182856  .00000180  00000-0  29375-4 0  9990,2 51872  53.2186 302.1529 0001541  57.7228 302.3914 15.08839015 31662,6917.8830000000025,95.438,540.814,538.682,0.0
51872.0,STARLINK-3554,PAYLOAD,2022-09-18 14:06:49,15.08840249,0.0001546,53.2187,301.8557,56.9024,303.2117,3.8963e-05,3.32e-06,0.0,0 STARLINK-3554,1 51872U 22022W   22261.58806752  .00000332  00000-0  38963-4 0  9996,2 51872  53.2187 301.8557 0001546  56.9024 303.2117 15.08840249 31677,6917.88,95.438,540.814,538.675,0.0
51872.0,STARLINK-3554,PAYLOAD,2022-09-19 09:11:27,15.0882982,0.0001509,53.2184,298.2873,53.5219,306.5912,0.00011622,1.562e-05,0.0,0 STARLINK-3554,1 51872U 22022W   22262.38295440  .00001562  00000-0  11622-3 0  9999,2 51872  53.2184 298.2873 0001509  53.5219 306.5912 15.08829820 31796,6917.9119999999975,95.438,540.82,538.7330000000002,0.0
51872.0,STARLINK-3554,PAYLOAD,2022-09-19 12:22:13,15.08829471,0.0001524,53.2184,297.6926,53.0958,307.0174,0.00010846,1.438e-05,0.0,0 STARLINK-3554,1 51872U 22022W   22262.51543570  .00001438  00000-0  10846-3 0  9993,2 51872  53.2184 297.6926 0001524  53.0958 307.0174 15.08829471 31811,6917.913000000001,95.438,540.832,538.7230000000002,0.0
51872.0,STARLINK-3554,PAYLOAD,2022-09-20 12:12:59,15.08847071,0.0001539,53.2181,293.2321,51.8931,308.22,0.00011386,1.525e-05,0.0,0 STARLINK-3554,1 51872U 22022W   22263.50902596  .00001525  00000-0  11386-3 0  9997,2 51872  53.2181 293.2321 0001539  51.8931 308.2200 15.08847071 31967,6917.859,95.437,540.788,538.659,0.0
51872.0,STARLINK-3554,PAYLOAD,2022-09-21 04:06:51,15.08836759,0.0001656,53.218,290.2593,52.9021,307.2122,5.8465e-05,6.42e-06,0.0,0 STARLINK-3554,1 51872U 22022W   22264.17143347  .00000642  00000-0  58465-4 0  9991,2 51872  53.2180 290.2593 0001656  52.9021 307.2122 15.08836759 32061,6917.89,95.438,540.901,538.61,0.0
51872.0,STARLINK-3554,PAYLOAD,2022-09-21 10:28:24,15.08839022,0.0001664,53.2183,289.0702,54.3506,305.7641,7.206899999999999e-05,8.59e-06,0.0,0 STARLINK-3554,1 51872U 22022W   22264.43639182  .00000859  00000-0  72069-4 0  9993,2 51872  53.2183 289.0702 0001664  54.3506 305.7641 15.08839022 32105,6917.8830000000025,95.438,540.9,538.597,0.0
51872.0,STARLINK-3554,PAYLOAD,2022-09-22 03:57:38,15.08845632,0.0001798,53.2185,285.7994,55.9445,304.1718,3.3724e-05,2.49e-06,0.0,0 STARLINK-3554,1 51872U 22022W   22265.16502900  .00000249  00000-0  33724-4 0  9999,2 51872  53.2185 285.7994 0001798  55.9445 304.1718 15.08845632 32214,6917.863,95.437,540.972,538.484,0.0
51872.0,STARLINK-3554,PAYLOAD,2022-09-22 10:19:11,15.08833949,0.0001656,53.218,284.6087,38.6257,321.4853,5.9312e-05,6.56e-06,0.0,0 STARLINK-3554,1 51872U 22022W   22265.42999572  .00000656  00000-0  59312-4 0  9996,2 51872  53.2180 284.6087 0001656  38.6257 321.4853 15.08833949 32256,6917.899,95.438,540.909,538.618,0.0
51872.0,STARLINK-3554,PAYLOAD,2022-09-22 18:16:06,15.08849862,0.0001744,53.2181,283.122,49.6721,310.4423,-0.00011249,-2.078e-05,0.0,0 STARLINK-3554,1 51872U 22022W   22265.76119010 -.00002078  00000-0 -11249-3 0  9992,2 51872  53.2181 283.1220 0001744  49.6721 310.4423 15.08849862 32304,6917.85,95.437,540.922,538.509,0.0
51872.0,STARLINK-3554,PAYLOAD,2022-09-23 08:34:35,15.0884316,0.0001736,53.2181,280.446,52.7791,307.336,8.168e-05,1.012e-05,0.0,0 STARLINK-3554,1 51872U 22022W   22266.35734983  .00001012  00000-0  81680-4 0  9992,2 51872  53.2181 280.4460 0001736  52.7791 307.3360 15.08843160 32392,6917.871,95.437,540.937,538.535,0.0
51872.0,STARLINK-3554,PAYLOAD,2022-09-23 18:06:53,15.08850004,0.000172,53.2181,278.6618,52.8902,307.2247,9.2968e-05,1.192e-05,0.0,0 STARLINK-3554,1 51872U 22022W   22266.75478419  .00001192  00000-0  92968-4 0  9995,2 51872  53.2181 278.6618 0001720  52.8902 307.2247 15.08850004 32459,6917.85,95.437,540.905,538.525,0.0
51872.0,STARLINK-3554,PAYLOAD,2022-09-24 08:25:22,15.08839346,0.0001726,53.2183,275.9853,53.5522,306.5629,9.8625e-05,1.282e-05,0.0,0 STARLINK-3554,1 51872U 22022W   22267.35095033  .00001282  00000-0  98625-4 0  9995,2 51872  53.2183 275.9853 0001726  53.5522 306.5629 15.08839346 32546,6917.882,95.438,540.941,538.553,0.0
51872.0,STARLINK-3554,PAYLOAD,2022-09-24 17:57:40,15.08843806,0.0001740999999999,53.2182,274.2015,53.8428,306.2725,0.0001049,1.382e-05,0.0,0 STARLINK-3554,1 51872U 22022W   22267.74838712  .00001382  00000-0  10490-3 0  9991,2 51872  53.2182 274.2015 0001741  53.8428 306.2725 15.08843806 32609,6917.869000000002,95.437,540.938,538.529,0.0
51872.0,STARLINK-3554,PAYLOAD,2022-09-25 05:05:22,15.08851176,0.0001792,53.2183,272.1196,54.8205,305.2955,0.00011219,1.498e-05,0.0,0 STARLINK-3554,1 51872U 22022W   22268.21206022  .00001498  00000-0  11219-3 0  9995,2 51872  53.2183 272.1196 0001792  54.8205 305.2955 15.08851176 32677,6917.846,95.437,540.951,538.472,0.0
51872.0,STARLINK-3554,PAYLOAD,2022-09-25 09:51:32,15.08840898,0.0001761,53.2186,271.2272,59.5343,300.5823,-4.7389e-06,-3.64e-06,0.0,0 STARLINK-3554,1 51872U 22022W   22268.41078893 -.00000364  00000-0 -47389-5 0  9992,2 51872  53.2186 271.2272 0001761  59.5343 300.5823 15.08840898 32701,6917.878000000002,95.437,540.961,538.524,0.0
51872.0,STARLINK-3554,PAYLOAD,2022-09-25 17:48:27,15.08842458,0.0001723,53.2184,269.7406,60.1256,299.9907,-2.8352e-06,-3.33e-06,0.0,0 STARLINK-3554,1 51872U 22022W   22268.74198724 -.00000333  00000-0 -28352-5 0  9999,2 51872  53.2184 269.7406 0001723  60.1256 299.9907 15.08842458 32752,6917.873000000001,95.437,540.93,538.5459999999998,0.0
51872.0,STARLINK-3554,PAYLOAD,2022-09-26 11:17:42,15.08832615,0.0001806,53.2181,266.4705,54.4827,305.6333,-8.038e-06,-4.16e-06,0.0,0 STARLINK-3554,1 51872U 22022W   22269.47063516 -.00000416  00000-0 -80380-5 0  9991,2 51872  53.2181 266.4705 0001806  54.4827 305.6333 15.08832615 32861,6917.903,95.438,541.0169999999998,538.519,0.0
51872.0,STARLINK-3554,PAYLOAD,2022-09-27 03:11:33,15.08841558,0.0001821,53.218,263.4967,56.3264,303.7902,3.4573000000000008e-06,-2.33e-06,0.0,0 STARLINK-3554,1 51872U 22022W   22270.13303089 -.00000233  00000-0  34573-5 0  9997,2 51872  53.2180 263.4967 0001821  56.3264 303.7902 15.08841558 32968,6917.876,95.437,541.0,538.481,0.0
51872.0,STARLINK-3554,PAYLOAD,2022-09-27 09:33:06,15.08845873,0.0001838,53.2181,262.3073,55.6123,304.5043,3.6808e-05,2.98e-06,0.0,0 STARLINK-3554,1 51872U 22022W   22270.39798708  .00000298  00000-0  36808-4 0  9993,2 51872  53.2181 262.3073 0001838  55.6123 304.5043 15.08845873 33004,6917.861999999999,95.437,540.999,538.456,0.0
51872.0,STARLINK-3554,PAYLOAD,2022-09-28 04:37:43,15.08841219,0.0001709,53.218,258.7386,59.6568,300.4593,0.00014295,1.988e-05,0.0,0 STARLINK-3554,1 51872U 22022W   22271.19286770  .00001988  00000-0  14295-3 0  9995,2 51872  53.2180 258.7386 0001709  59.6568 300.4593 15.08841219 33121,6917.877,95.437,540.924,538.559,0.0
51872.0,STARLINK-3554,PAYLOAD,2022-09-28 09:23:52,15.08858749,0.0001751999999999,53.2178,257.8468,51.5541,308.5608,-0.00011525,-2.123e-05,0.0,0 STARLINK-3554,1 51872U 22022W   22271.39158363 -.00002123  00000-0 -11525-3 0  9990,2 51872  53.2178 257.8468 0001752  51.5541 308.5608 15.08858749 33154,6917.823,95.436,540.9,538.476,0.0
51872.0,STARLINK-3554,PAYLOAD,2022-09-28 15:45:26,15.08836456,0.0001813,53.2181,256.657,55.5177,304.5987,0.00012192,1.653e-05,0.0,0 STARLINK-3554,1 51872U 22022W   22271.65655261  .00001653  00000-0  12192-3 0  9994,2 51872  53.2181 256.6570 0001813  55.5177 304.5987 15.08836456 33197,6917.891,95.438,541.01,538.502,0.0
